[{"OBJECT_NAME":"KINEIS-2D","OBJECT_ID":"2025-028C","EPOCH":"2026-03-09T16:55:19.493472","MEAN_MOTION":14.75343562,"ECCENTRICITY":0.00040948,"INCLINATION":97.9409,"RA_OF_ASC_NODE":123.0354,"ARG_OF_PERICENTER":146.2711,"MEAN_ANOMALY":213.876,"EPHEMERIS_TYPE":0,"CLASSIFICATION_TYPE":"U","NORAD_CAT_ID":62930,"ELEMENT_SET_NO":999,"REV_AT_EPOCH":5804,"BSTAR":0.0003359917,"MEAN_MOTION_DOT":2.229e-5,"MEAN_MOTION_DDOT":0},{"OBJECT_NAME":"SL-16 DEB","OBJECT_ID":"1994-077M","EPOCH":"2026-03-09T07:57:11.227680","MEAN_MOTION":14.67995781,"ECCENTRICITY":0.00413519,"INCLINATION":70.9939,"RA_OF_ASC_NODE":304.7544,"ARG_OF_PERICENTER":59.0492,"MEAN_ANOMALY":59.9429,"EPHEMERIS_TYPE":0,"CLASSIFICATION_TYPE":"U","NORAD_CAT_ID":27760,"ELEMENT_SET_NO":999,"REV_AT_EPOCH":37539,"BSTAR":0.00086101101,"MEAN_MOTION_DOT":4.944e-5,"MEAN_MOTION_DDOT":0}]
